HAWK-5A                 
1 52757U 22057AB  26196.41495463  .00010888  00000+0  18056-3 0  9999
2 52757  97.6623 357.1108 0003324 336.9169  23.1933 15.52328592230722
HAWK-6B                 
1 55324U 23011A   26196.37860636  .00002510  00000+0  11216-3 0  9990
2 55324  40.4971 187.6092 0004189 241.6135 118.4252 15.23154469192143
HAWK-6C                 
1 55326U 23011C   26196.37797491  .00002273  00000+0  10236-3 0  9997
2 55326  40.4961 184.4487 0004714 234.6057 125.4312 15.23155670192157
HAWK-6A                 
1 55327U 23011D   26196.37801227  .00002383  00000+0  10690-3 0  9997
2 55327  40.4971 186.0753 0004284 231.8799 128.1625 15.23155263192152
HAWK-7A                 
1 56191U 23054P   26196.21355887  .00003010  00000+0  11410-3 0  9992
2 56191  97.2664  82.8385 0001399 333.4974  26.6194 15.27632350181302
HAWK-7B                 
1 56193U 23054R   26196.47550223  .00003035  00000+0  11502-3 0  9992
2 56193  97.2689  81.3676 0001278  16.5432 343.5849 15.27632324181345
HAWK-7C                 
1 56200U 23054Y   26196.54088126  .00003157  00000+0  11954-3 0  9993
2 56200  97.2664  82.1915 0000883 353.9990   6.1239 15.27636055181351
