OBJECT_NAME,OBJECT_ID,EPOCH,MEAN_MOTION,ECCENTRICITY,INCLINATION,RA_OF_ASC_NODE,ARG_OF_PERICENTER,MEAN_ANOMALY,EPHEMERIS_TYPE,CLASSIFICATION_TYPE,NORAD_CAT_ID,ELEMENT_SET_NO,REV_AT_EPOCH,BSTAR,MEAN_MOTION_DOT,MEAN_MOTION_DDOT
HAWK-5A,2022-057AB,2026-07-15T09:57:32.080032,15.52328592,.00033244,97.6623,357.1108,336.9169,23.1933,0,U,52757,999,23072,.1805589E-3,.10888E-3,0
HAWK-6B,2023-011A,2026-07-15T09:05:11.589504,15.23154469,.00041894,40.4971,187.6092,241.6135,118.4252,0,U,55324,999,19214,.11216102E-3,.251E-4,0
HAWK-6C,2023-011C,2026-07-15T09:04:17.032224,15.23155670,.00047142,40.4961,184.4487,234.6057,125.4312,0,U,55326,999,19215,.10235967E-3,.2273E-4,0
HAWK-6A,2023-011D,2026-07-15T09:04:20.260128,15.23155263,.00042849,40.4971,186.0753,231.8799,128.1625,0,U,55327,999,19215,.10689843E-3,.2383E-4,0
HAWK-7A,2023-054P,2026-07-15T05:07:31.486368,15.27632350,.00013991,97.2664,82.8385,333.4974,26.6194,0,U,56191,999,18130,.11410122E-3,.301E-4,0
HAWK-7B,2023-054R,2026-07-15T11:24:43.392672,15.27632324,.00012781,97.2689,81.3676,16.5432,343.5849,0,U,56193,999,18134,.11502192E-3,.3035E-4,0
HAWK-7C,2023-054Y,2026-07-15T12:58:52.140864,15.27636055,.00008834,97.2664,82.1915,353.9990,6.1239,0,U,56200,999,18135,.11953917E-3,.3157E-4,0
